STARLINK-1559           
1 46077U 20055BC  26068.23360559  .00042685  00000+0  14779-2 0  9995
2 46077  53.0254  76.0659 0004229  33.9710 326.1559 15.29461733309518
STARLINK-36174          
1 67166U 25303D   26068.07979290  .00039595  00000+0  14398-2 0  9991
2 67166  43.0029 314.0153 0002509 253.7546 106.3030 15.27597520 12640
